{
  "links" : {
    "next" : "https://api.nasa.gov/neo/rest/v1/feed?start_date=1998-02-16&end_date=1998-02-16&detailed=true&api_key=t0TVs3DtDT2H8Oy2Zy8m2eVrNsAVKAexjcZXUckd",
    "prev" : "https://api.nasa.gov/neo/rest/v1/feed?start_date=1998-02-14&end_date=1998-02-14&detailed=true&api_key=t0TVs3DtDT2H8Oy2Zy8m2eVrNsAVKAexjcZXUckd",
    "self" : "https://api.nasa.gov/neo/rest/v1/feed?start_date=1998-02-15&end_date=1998-02-15&detailed=true&api_key=t0TVs3DtDT2H8Oy2Zy8m2eVrNsAVKAexjcZXUckd"
  },
  "element_count" : 7,
  "near_earth_objects" : {
    "1998-02-15" : [ {
      "links" : {
        "self" : "https://api.nasa.gov/neo/rest/v1/neo/3528338?api_key=t0TVs3DtDT2H8Oy2Zy8m2eVrNsAVKAexjcZXUckd"
      },
      "neo_reference_id" : "3528338",
      "name" : "(2010 LM14)",
      "nasa_jpl_url" : "http://ssd.jpl.nasa.gov/sbdb.cgi?sstr=3528338",
      "absolute_magnitude_h" : 21.5,
      "estimated_diameter" : {
        "kilometers" : {
          "estimated_diameter_min" : 0.1332155667,
          "estimated_diameter_max" : 0.2978790628
        },
        "meters" : {
          "estimated_diameter_min" : 133.2155666981,
          "estimated_diameter_max" : 297.8790627982
        },
        "miles" : {
          "estimated_diameter_min" : 0.0827762899,
          "estimated_diameter_max" : 0.1850934111
        },
        "feet" : {
          "estimated_diameter_min" : 437.0589598459,
          "estimated_diameter_max" : 977.2935443908
        }
      },
      "is_potentially_hazardous_asteroid" : false,
      "close_approach_data" : [ {
        "close_approach_date" : "1998-02-15",
        "epoch_date_close_approach" : 887529600000,
        "relative_velocity" : {
          "kilometers_per_second" : "14.151109013",
          "kilometers_per_hour" : "50943.992446634",
          "miles_per_hour" : "31654.6157510766"
        },
        "miss_distance" : {
          "astronomical" : "0.4508686575",
          "lunar" : "175.3879089355",
          "kilometers" : "67448992",
          "miles" : "41910860"
        },
        "orbiting_body" : "Earth"
      } ],
      "orbital_data" : {
        "orbit_id" : "13",
        "orbit_determination_date" : "2017-06-20 06:19:26",
        "orbit_uncertainty" : "1",
        "minimum_orbit_intersection" : ".313053",
        "jupiter_tisserand_invariant" : "5.455",
        "epoch_osculation" : "2458000.5",
        "eccentricity" : ".3793664784477458",
        "semi_major_axis" : "1.110312468405852",
        "inclination" : "25.92472031044273",
        "ascending_node_longitude" : "176.669182927554",
        "orbital_period" : "427.3328232665012",
        "perihelion_distance" : ".6890971372900999",
        "perihelion_argument" : "187.9275111629084",
        "aphelion_distance" : "1.531527799521604",
        "perihelion_time" : "2457997.710336822946",
        "mean_anomaly" : "2.350109069700449",
        "mean_motion" : ".8424347028814357",
        "equinox" : "J2000"
      }
    }, {
      "links" : {
        "self" : "https://api.nasa.gov/neo/rest/v1/neo/3553987?api_key=t0TVs3DtDT2H8Oy2Zy8m2eVrNsAVKAexjcZXUckd"
      },
      "neo_reference_id" : "3553987",
      "name" : "(2010 XQ69)",
      "nasa_jpl_url" : "http://ssd.jpl.nasa.gov/sbdb.cgi?sstr=3553987",
      "absolute_magnitude_h" : 23.2,
      "estimated_diameter" : {
        "kilometers" : {
          "estimated_diameter_min" : 0.0608912622,
          "estimated_diameter_max" : 0.1361570015
        },
        "meters" : {
          "estimated_diameter_min" : 60.8912622106,
          "estimated_diameter_max" : 136.1570015386
        },
        "miles" : {
          "estimated_diameter_min" : 0.0378360645,
          "estimated_diameter_max" : 0.0846040122
        },
        "feet" : {
          "estimated_diameter_min" : 199.7744887109,
          "estimated_diameter_max" : 446.7093369279
        }
      },
      "is_potentially_hazardous_asteroid" : false,
      "close_approach_data" : [ {
        "close_approach_date" : "1998-02-15",
        "epoch_date_close_approach" : 887529600000,
        "relative_velocity" : {
          "kilometers_per_second" : "9.9880812357",
          "kilometers_per_hour" : "35957.0924485264",
          "miles_per_hour" : "22342.3389161413"
        },
        "miss_distance" : {
          "astronomical" : "0.1450778634",
          "lunar" : "56.4352912903",
          "kilometers" : "21703340",
          "miles" : "13485831"
        },
        "orbiting_body" : "Earth"
      } ],
      "orbital_data" : {
        "orbit_id" : "11",
        "orbit_determination_date" : "2017-04-06 08:55:10",
        "orbit_uncertainty" : "4",
        "minimum_orbit_intersection" : ".00818455",
        "jupiter_tisserand_invariant" : "6.673",
        "epoch_osculation" : "2458000.5",
        "eccentricity" : ".4502709208610773",
        "semi_major_axis" : ".8759040751582515",
        "inclination" : "1.099098566008653",
        "ascending_node_longitude" : "177.5526659446396",
        "orbital_period" : "299.4216830716279",
        "perihelion_distance" : ".4815099406507753",
        "perihelion_argument" : "104.8950680296148",
        "aphelion_distance" : "1.270298209665728",
        "perihelion_time" : "2458130.242246658933",
        "mean_anomaly" : "204.0085957768048",
        "mean_motion" : "1.202317735666059",
        "equinox" : "J2000"
      }
    }, {
      "links" : {
        "self" : "https://api.nasa.gov/neo/rest/v1/neo/3639549?api_key=t0TVs3DtDT2H8Oy2Zy8m2eVrNsAVKAexjcZXUckd"
      },
      "neo_reference_id" : "3639549",
      "name" : "(2013 LE7)",
      "nasa_jpl_url" : "http://ssd.jpl.nasa.gov/sbdb.cgi?sstr=3639549",
      "absolute_magnitude_h" : 27.4,
      "estimated_diameter" : {
        "kilometers" : {
          "estimated_diameter_min" : 0.0088014652,
          "estimated_diameter_max" : 0.0196806745
        },
        "meters" : {
          "estimated_diameter_min" : 8.801465209,
          "estimated_diameter_max" : 19.6806745089
        },
        "miles" : {
          "estimated_diameter_min" : 0.0054689752,
          "estimated_diameter_max" : 0.0122290004
        },
        "feet" : {
          "estimated_diameter_min" : 28.8761991163,
          "estimated_diameter_max" : 64.5691441559
        }
      },
      "is_potentially_hazardous_asteroid" : false,
      "close_approach_data" : [ {
        "close_approach_date" : "1998-02-15",
        "epoch_date_close_approach" : 887529600000,
        "relative_velocity" : {
          "kilometers_per_second" : "2.7038574039",
          "kilometers_per_hour" : "9733.8866542082",
          "miles_per_hour" : "6048.2586268884"
        },
        "miss_distance" : {
          "astronomical" : "0.1859418587",
          "lunar" : "72.3313827515",
          "kilometers" : "27816506",
          "miles" : "17284376"
        },
        "orbiting_body" : "Earth"
      } ],
      "orbital_data" : {
        "orbit_id" : "20",
        "orbit_determination_date" : "2017-04-06 08:45:39",
        "orbit_uncertainty" : "4",
        "minimum_orbit_intersection" : ".0347097",
        "jupiter_tisserand_invariant" : "5.421",
        "epoch_osculation" : "2458000.5",
        "eccentricity" : ".1035108183333453",
        "semi_major_axis" : "1.161114069113486",
        "inclination" : "1.68710640666636",
        "ascending_node_longitude" : "203.2701568369671",
        "orbital_period" : "456.9942734128599",
        "perihelion_distance" : "1.040926201641189",
        "perihelion_argument" : "37.43828916265782",
        "aphelion_distance" : "1.281301936585784",
        "perihelion_time" : "2457805.479593865556",
        "mean_anomaly" : "153.62850322847",
        "mean_motion" : ".7877560419116393",
        "equinox" : "J2000"
      }
    } ]
  }
}